{"type": "FeatureCollection", "features": [{"type": "Feature", "properties": {"norad_id": 49537, "name": "COSMOS 1408 DEB", "group": "cosmos-1408-debris", "lat": 38.924055820046526, "lon": 112.21809232764619, "alt_km": 155.38345558434412, "timestamp": "2025-12-02T07:10:09.385791+00:00", "meta": {"OBJECT_NAME": "COSMOS 1408 DEB", "OBJECT_ID": "1982-092AA", "EPOCH": "2025-12-01T10:29:21.651360", "MEAN_MOTION": 16.33498888, "ECCENTRICITY": 0.00127731, "INCLINATION": 82.5092, "RA_OF_ASC_NODE": 107.1368, "ARG_OF_PERICENTER": 299.8571, "MEAN_ANOMALY": 60.1455, "EPHEMERIS_TYPE": 0, "CLASSIFICATION_TYPE": "U", "NORAD_CAT_ID": 49537, "ELEMENT_SET_NO": 999, "REV_AT_EPOCH": 22403, "BSTAR": 0.00094222941, "MEAN_MOTION_DOT": 0.05878558, "MEAN_MOTION_DDOT": -1.252052e-06}, "tle": {"line1": "1 49537U 82092AA  25335.43705615  .05878558 -12521-5  94223-3 0  9994", "line2": "2 49537  82.5092 107.1368 0012773 299.8571  60.1455 16.33498888224033"}}, "geometry": {"type": "Point", "coordinates": [112.21809232764619, 38.924055820046526]}}, {"type": "Feature", "properties": {"norad_id": 50032, "name": "COSMOS 1408 DEB", "group": "cosmos-1408-debris", "lat": 28.609212117762652, "lon": 73.29226107175558, "alt_km": 436.15349089031315, "timestamp": "2025-12-02T07:10:09.385812+00:00", "meta": {"OBJECT_NAME": "COSMOS 1408 DEB", "OBJECT_ID": "1982-092RU", "EPOCH": "2025-12-01T12:23:52.259712", "MEAN_MOTION": 15.45515791, "ECCENTRICITY": 0.00146094, "INCLINATION": 82.5648, "RA_OF_ASC_NODE": 70.0089, "ARG_OF_PERICENTER": 252.6553, "MEAN_ANOMALY": 107.3098, "EPHEMERIS_TYPE": 0, "CLASSIFICATION_TYPE": "U", "NORAD_CAT_ID": 50032, "ELEMENT_SET_NO": 999, "REV_AT_EPOCH": 22430, "BSTAR": 0.00013928653, "MEAN_MOTION_DOT": 6.746e-05, "MEAN_MOTION_DDOT": 0}, "tle": {"line1": "1 50032U 82092RU  25335.51657708  .00006746  00000+0  13929-3 0  9997", "line2": "2 50032  82.5648  70.0089 0014609 252.6553 107.3098 15.45515791224309"}}, "geometry": {"type": "Point", "coordinates": [73.29226107175558, 28.609212117762652]}}, {"type": "Feature", "properties": {"norad_id": 50058, "name": "COSMOS 1408 DEB", "group": "cosmos-1408-debris", "lat": -81.39427066682336, "lon": 21.247978556734694, "alt_km": 394.1410709155143, "timestamp": "2025-12-02T07:10:09.385826+00:00", "meta": {"OBJECT_NAME": "COSMOS 1408 DEB", "OBJECT_ID": "1982-092SW", "EPOCH": "2025-12-01T17:42:30.577824", "MEAN_MOTION": 15.63113655, "ECCENTRICITY": 0.0016295, "INCLINATION": 82.6131, "RA_OF_ASC_NODE": 80.8464, "ARG_OF_PERICENTER": 138.1826, "MEAN_ANOMALY": 222.0681, "EPHEMERIS_TYPE": 0, "CLASSIFICATION_TYPE": "U", "NORAD_CAT_ID": 50058, "ELEMENT_SET_NO": 999, "REV_AT_EPOCH": 22632, "BSTAR": 0.00037559, "MEAN_MOTION_DOT": 0.00034537, "MEAN_MOTION_DDOT": 0}, "tle": {"line1": "1 50058U 82092SW  25335.73785391  .00034537  00000+0  37559-3 0  9993", "line2": "2 50058  82.6131  80.8464 0016295 138.1826 222.0681 15.63113655226325"}}, "geometry": {"type": "Point", "coordinates": [21.247978556734694, -81.39427066682336]}}, {"type": "Feature", "properties": {"norad_id": 50404, "name": "COSMOS 1408 DEB", "group": "cosmos-1408-debris", "lat": 45.39964643932366, "lon": 37.721887120232346, "alt_km": 549.1949057229731, "timestamp": "2025-12-02T07:10:09.385837+00:00", "meta": {"OBJECT_NAME": "COSMOS 1408 DEB", "OBJECT_ID": "1982-092ADS", "EPOCH": "2025-12-01T17:51:06.623424", "MEAN_MOTION": 15.11496442, "ECCENTRICITY": 0.0177215, "INCLINATION": 82.207, "RA_OF_ASC_NODE": 226.2707, "ARG_OF_PERICENTER": 237.0607, "MEAN_ANOMALY": 121.3475, "EPHEMERIS_TYPE": 0, "CLASSIFICATION_TYPE": "U", "NORAD_CAT_ID": 50404, "ELEMENT_SET_NO": 999, "REV_AT_EPOCH": 21027, "BSTAR": 0.0026637, "MEAN_MOTION_DOT": 0.00066555, "MEAN_MOTION_DDOT": 0}, "tle": {"line1": "1 50404U 82092ADS 25335.74382666  .00066555  00000+0  26637-2 0  9996", "line2": "2 50404  82.2070 226.2707 0177215 237.0607 121.3475 15.11496442210270"}}, "geometry": {"type": "Point", "coordinates": [37.721887120232346, 45.39964643932366]}}, {"type": "Feature", "properties": {"norad_id": 50621, "name": "COSMOS 1408 DEB", "group": "cosmos-1408-debris", "lat": -27.781820914528208, "lon": -91.01544239816353, "alt_km": 386.94692646058047, "timestamp": "2025-12-02T07:10:09.385849+00:00", "meta": {"OBJECT_NAME": "COSMOS 1408 DEB", "OBJECT_ID": "1982-092ALR", "EPOCH": "2025-12-01T08:40:02.733600", "MEAN_MOTION": 15.55763582, "ECCENTRICITY": 0.00289111, "INCLINATION": 82.5699, "RA_OF_ASC_NODE": 86.0169, "ARG_OF_PERICENTER": 194.2516, "MEAN_ANOMALY": 165.7927, "EPHEMERIS_TYPE": 0, "CLASSIFICATION_TYPE": "U", "NORAD_CAT_ID": 50621, "ELEMENT_SET_NO": 999, "REV_AT_EPOCH": 22073, "BSTAR": 0.00047506619, "MEAN_MOTION_DOT": 0.00033485, "MEAN_MOTION_DDOT": 0}, "tle": {"line1": "1 50621U 82092ALR 25335.36114275  .00033485  00000+0  47507-3 0  9990", "line2": "2 50621  82.5699  86.0169 0028911 194.2516 165.7927 15.55763582220732"}}, "geometry": {"type": "Point", "coordinates": [-91.01544239816353, -27.781820914528208]}}]}